NORAD_CAT_ID,OBJECT_NAME,OBJECT_TYPE,EPOCH,MEAN_MOTION,ECCENTRICITY,INCLINATION,RA_OF_ASC_NODE,ARG_OF_PERICENTER,MEAN_ANOMALY,BSTAR,MEAN_MOTION_DOT,MEAN_MOTION_DDOT,TLE_LINE0,TLE_LINE1,TLE_LINE2,SEMIMAJOR_AXIS,PERIOD,APOGEE,PERIGEE,DECAYED
53399.0,STARLINK-4528,PAYLOAD,2024-01-10 04:11:50,15.08834471,0.000134,53.2186,68.389,110.3691,249.7445,4.5345e-05,4.34e-06,0.0,0 STARLINK-4528,1 53399U 22097M   24010.17489107  .00000434  00000-0  45345-4 0  9999,2 53399  53.2186  68.3890 0001340 110.3691 249.7445 15.08834471 78831,6917.897,95.438,540.689,538.835,0.0
53399.0,STARLINK-4528,PAYLOAD,2024-01-10 08:57:59,15.08838684,0.0001353,53.2188,67.4968,105.2193,254.8949,7.5413e-05,9.12e-06,0.0,0 STARLINK-4528,1 53399U 22097M   24010.37360833  .00000912  00000-0  75413-4 0  9995,2 53399  53.2188  67.4968 0001353 105.2193 254.8949 15.08838684 79357,6917.884,95.438,540.685,538.813,0.0
53399.0,STARLINK-4528,PAYLOAD,2024-01-11 10:24:09,15.08845523,0.0001559,53.218,62.7437,106.0296,254.0868,0.00014563,2.031e-05,0.0,0 STARLINK-4528,1 53399U 22097M   24011.43344726  .00002031  00000-0  14563-3 0  9998,2 53399  53.2180  62.7437 0001559 106.0296 254.0868 15.08845523 79025,6917.864,95.437,540.807,538.65,0.0
53399.0,STARLINK-4528,PAYLOAD,2024-01-12 03:53:25,15.08832629,0.0001359,53.2187,59.4752,97.8834,262.2312,2.5194e-06,-2.48e-06,0.0,0 STARLINK-4528,1 53399U 22097M   24012.16209976 -.00000248  00000-0  25194-5 0  9999,2 53399  53.2187  59.4752 0001359  97.8834 262.2312 15.08832629 79138,6917.903,95.438,540.708,538.828,0.0
53399.0,STARLINK-4528,PAYLOAD,2024-01-12 08:39:34,15.0883532,0.0001593,53.2187,58.5833,107.9272,252.1894,1.9136e-05,1.7e-07,0.0,0 STARLINK-4528,1 53399U 22097M   24012.36081789  .00000017  00000-0  19136-4 0  9992,2 53399  53.2187  58.5833 0001593 107.9272 252.1894 15.08835320 79658,6917.895,95.438,540.862,538.658,0.0
53399.0,STARLINK-4528,PAYLOAD,2024-01-13 10:05:44,15.08840842,0.0001315,53.217,53.8212,91.5144,268.5999,6.5116e-05,7.49e-06,0.0,0 STARLINK-4528,1 53399U 22097M   24013.42065606  .00000749  00000-0  65116-4 0  9991,2 53399  53.2170  53.8212 0001315  91.5144 268.5999 15.08840842 79323,6917.878,95.438,540.653,538.833,0.0
53399.0,STARLINK-4528,PAYLOAD,2024-01-13 22:48:50,15.08829813,0.0001455,53.2175,51.4429,102.078,258.0375,0.00016801,2.386e-05,0.0,0 STARLINK-4528,1 53399U 22097M   24013.95058074  .00002386  00000-0  16801-3 0  9995,2 53399  53.2175  51.4429 0001455 102.0780 258.0375 15.08829813 79407,6917.912,95.438,540.783,538.77,0.0
53399.0,STARLINK-4528,PAYLOAD,2024-01-14 11:31:54,15.08847537,0.0001439,53.2175,49.0626,103.7399,256.3753,0.00014674,2.049e-05,0.0,0 STARLINK-4528,1 53399U 22097M   24014.48049183  .00002049  00000-0  14674-3 0  9997,2 53399  53.2175  49.0626 0001439 103.7399 256.3753 15.08847537 79487,6917.857,95.437,540.718,538.727,0.0
53399.0,STARLINK-4528,PAYLOAD,2024-01-14 22:39:37,15.08841211,0.0001655,53.2174,46.9818,107.3016,252.8157,7.9885e-05,9.84e-06,0.0,0 STARLINK-4528,1 53399U 22097M   24014.94417914  .00000984  00000-0  79885-4 0  9991,2 53399  53.2174  46.9818 0001655 107.3016 252.8157 15.08841211 79551,6917.877,95.437,540.887,538.597,0.0
53399.0,STARLINK-4528,PAYLOAD,2024-01-15 11:22:41,15.08849307,0.0001737,53.2178,44.6027,105.6056,254.5128,0.00013027,1.786e-05,0.0,0 STARLINK-4528,1 53399U 22097M   24015.47409242  .00001786  00000-0  13027-3 0  9991,2 53399  53.2178  44.6027 0001737 105.6056 254.5128 15.08849307 79638,6917.852,95.437,540.919,538.515,0.0
53399.0,STARLINK-4528,PAYLOAD,2024-01-16 11:13:29,15.08843241,0.00016,53.2195,40.1383,98.9945,261.1229,-5.5953e-06,-3.77e-06,0.0,0 STARLINK-4528,1 53399U 22097M   24016.46770064 -.00000377  00000-0 -55953-5 0  9997,2 53399  53.2195  40.1383 0001600  98.9945 261.1229 15.08843241 79786,6917.87,95.437,540.842,538.629,0.0
53399.0,STARLINK-4528,PAYLOAD,2024-01-17 07:53:29,15.08843693,0.0001867,53.2193,36.2723,124.9818,235.135,7.8268e-05,9.58e-06,0.0,0 STARLINK-4528,1 53399U 22097M   24017.32881782  .00000958  00000-0  78268-4 0  9999,2 53399  53.2193  36.2723 0001867 124.9818 235.1350 15.08843693 80400,6917.869,95.437,541.026,538.443,0.0
53399.0,STARLINK-4528,PAYLOAD,2024-01-18 04:33:31,15.08839547,0.0001396,53.2167,32.411,104.5261,255.5886,2.0495e-05,3.8e-07,0.0,0 STARLINK-4528,1 53399U 22097M   24018.18994466  .00000038  00000-0  20495-4 0  9996,2 53399  53.2167  32.4110 0001396 104.5261 255.5886 15.08839547 80045,6917.882,95.438,540.713,538.781,0.0
53399.0,STARLINK-4528,PAYLOAD,2024-01-18 10:55:03,15.08841721,0.0001414,53.217,31.221,103.5134,256.6016,3.9032e-05,3.33e-06,0.0,0 STARLINK-4528,1 53399U 22097M   24018.45490266  .00000333  00000-0  39032-4 0  9990,2 53399  53.2170  31.2210 0001414 103.5134 256.6016 15.08841721 80578,6917.875,95.437,540.718,538.762,0.0
53399.0,STARLINK-4528,PAYLOAD,2024-01-19 05:59:41,15.08848404,0.0001426,53.2174,27.6517,85.5414,274.5741,4.6029e-05,4.45e-06,0.0,0 STARLINK-4528,1 53399U 22097M   24019.24978172  .00000445  00000-0  46029-4 0  9993,2 53399  53.2174  27.6517 0001426  85.5414 274.5741 15.08848404 80203,6917.855,95.437,540.706,538.733,0.0
53399.0,STARLINK-4528,PAYLOAD,2024-01-20 04:15:06,15.08830567,0.0001604,53.2175,23.4879,60.8825,299.2328,8.1257e-05,1.005e-05,0.0,0 STARLINK-4528,1 53399U 22097M   24020.17715458  .00001005  00000-0  81257-4 0  9998,2 53399  53.2175  23.4879 0001604  60.8825 299.2328 15.08830567 80340,6917.909,95.438,540.884,538.665,0.0
53399.0,STARLINK-4528,PAYLOAD,2024-01-20 07:25:52,15.08833496,0.0001707,53.2178,22.8969,55.1307,304.9846,4.6908e-05,4.58e-06,0.0,0 STARLINK-4528,1 53399U 22097M   24020.30963509  .00000458  00000-0  46908-4 0  9990,2 53399  53.2178  22.8969 0001707  55.1307 304.9846 15.08833496 80851,6917.9,95.438,540.946,538.584,0.0
53399.0,STARLINK-4528,PAYLOAD,2024-01-21 04:05:52,15.08840897,0.000183,53.2181,19.0316,48.3114,311.8035,6.7289e-05,7.83e-06,0.0,0 STARLINK-4528,1 53399U 22097M   24021.17075168  .00000783  00000-0  67289-4 0  9997,2 53399  53.2181  19.0316 0001830  48.3114 311.8035 15.08840897 80496,6917.878,95.437,541.009,538.477,0.0
53399.0,STARLINK-4528,PAYLOAD,2024-01-21 05:41:16,15.08841944,0.0001869,53.2181,18.734,47.7789,312.3362,7.7615e-05,9.47e-06,0.0,0 STARLINK-4528,1 53399U 22097M   24021.23699134  .00000947  00000-0  77615-4 0  9995,2 53399  53.2181  18.7340 0001869  47.7789 312.3362 15.08841944 80990,6917.874,95.437,541.032,538.446,0.0
53399.0,STARLINK-4528,PAYLOAD,2024-01-21 07:16:38,15.08844977,0.000162,53.2181,18.4404,59.6943,300.4209,8.9433e-05,1.136e-05,0.0,0 STARLINK-4528,1 53399U 22097M   24021.30322860  .00001136  00000-0  89433-4 0  9994,2 53399  53.2181  18.4404 0001620  59.6943 300.4209 15.08844977 81007,6917.865,95.437,540.851,538.609,0.0
53399.0,STARLINK-4528,PAYLOAD,2024-01-22 03:56:40,15.08831114,0.0002224,53.2203,14.5712,49.8592,310.2595,4.9116e-05,4.93e-06,0.0,0 STARLINK-4528,1 53399U 22097M   24022.16436205  .00000493  00000-0  49116-4 0  9997,2 53399  53.2203  14.5712 0002224  49.8592 310.2595 15.08831114 80648,6917.908,95.438,541.311,538.234,0.0
53399.0,STARLINK-4528,PAYLOAD,2024-01-22 07:07:27,15.08804561,0.0001832,53.2202,13.9784,68.0929,292.0258,0.00042811,6.525e-05,0.0,0 STARLINK-4528,1 53399U 22097M   24022.29685015  .00006525  00000-0  42811-3 0  9992,2 53399  53.2202  13.9784 0001832  68.0929 292.0258 15.08804561 81156,6917.989,95.44,541.121,538.586,0.0
53399.0,STARLINK-4528,PAYLOAD,2024-01-22 08:42:50,15.08830324,0.0001773,53.2211,13.6744,65.8121,294.3056,7.2393e-05,8.64e-06,0.0,0 STARLINK-4528,1 53399U 22097M   24022.36308151  .00000864  00000-0  72393-4 0  9992,2 53399  53.2211  13.6744 0001773  65.8121 294.3056 15.08830324 81160,6917.91,95.438,541.002,538.548,0.0
53399.0,STARLINK-4528,PAYLOAD,2024-01-23 03:47:26,15.08850083,0.0001267,53.2184,10.1112,115.864,244.2483,4.9848e-05,5.06e-06,0.0,0 STARLINK-4528,1 53399U 22097M   24023.15794614  .00000506  00000-0  49848-4 0  9995,2 53399  53.2184  10.1112 0001267 115.8640 244.2483 15.08850083 80790,6917.85,95.437,540.591,538.838,0.0
53399.0,STARLINK-4528,PAYLOAD,2024-01-23 05:22:49,15.08849756,0.000126,53.2195,9.8122,109.3382,250.7747,5.5956e-05,6.03e-06,0.0,0 STARLINK-4528,1 53399U 22097M   24023.22418676  .00000603  00000-0  55956-4 0  9999,2 53399  53.2195   9.8122 0001260 109.3382 250.7747 15.08849756 81298,6917.851,95.437,540.587,538.844,0.0
53399.0,STARLINK-4528,PAYLOAD,2024-01-24 03:38:13,15.08844864,0.0001242,53.2188,5.6507,93.2977,266.8157,0.00010117,1.323e-05,0.0,0 STARLINK-4528,1 53399U 22097M   24024.15154765  .00001323  00000-0  10117-3 0  9997,2 53399  53.2188   5.6507 0001242  93.2977 266.8157 15.08844864 80941,6917.866,95.437,540.59,538.871,0.0
53399.0,STARLINK-4528,PAYLOAD,2024-01-24 05:13:36,15.08846382,0.0001256,53.2189,5.3534,93.1965,266.9171,0.00011807,1.592e-05,0.0,0 STARLINK-4528,1 53399U 22097M   24024.21778750  .00001592  00000-0  11807-3 0  9995,2 53399  53.2189   5.3534 0001256  93.1965 266.9171 15.08846382 81440,6917.861,95.437,540.595,538.857,0.0
53399.0,STARLINK-4528,PAYLOAD,2024-01-25 03:29:01,15.08845066,0.0001439,53.2195,1.191,79.2221,280.8933,-3.6804e-05,-8.74e-06,0.0,0 STARLINK-4528,1 53399U 22097M   24025.14515163 -.00000874  00000-0 -36804-4 0  9994,2 53399  53.2195   1.1910 0001439  79.2221 280.8933 15.08845066 81092,6917.865,95.437,540.725,538.734,0.0
53399.0,STARLINK-4528,PAYLOAD,2024-01-25 05:04:23,15.08851301,0.0001605,53.22,0.8925,92.8753,267.2423,-4.0924e-05,-9.4e-06,0.0,0 STARLINK-4528,1 53399U 22097M   24025.21138668 -.00000940  00000-0 -40924-4 0  9995,2 53399  53.2200   0.8925 0001605  92.8753 267.2423 15.08851301 81101,6917.846,95.437,540.821,538.601,0.0
53399.0,STARLINK-4528,PAYLOAD,2024-01-26 03:19:48,15.08851715,0.0002216,53.2202,356.7322,128.7072,231.4119,-0.00018486,-3.23e-05,0.0,0 STARLINK-4528,1 53399U 22097M   24026.13875013 -.00003230  00000-0 -18486-3 0  9991,2 53399  53.2202 356.7322 0002216 128.7072 231.4119 15.08851715 81248,6917.845,95.437,541.243,538.177,0.0
